{
  "type": "FeatureCollection",
  "schema_version": 1,
  "features": [
    {
      "type": "Feature",
      "geometry": {
        "type": "LineString",
        "coordinates": [[-73.99012, 40.73456], [-73.98801, 40.73502]]
      },
      "properties": {
        "segment_id": "27583001:0:F",
        "edge_id": 0,
        "source_node": 10,
        "target_node": 11,
        "osm_way_id": 27583001,
        "highway_class": "primary",
        "lanes_effective": 2,
        "length_m": 240.0,
        "maxspeed_kmh": 60.0,
        "freeflow_time_s": 14.4,
        "capacity_vph": 2880.0
      },
      "note": "one-way primary, defaults used: lanes=2, maxspeed=60. capacity=2*1800*0.8=2880; freeflow=240/(60/3.6)=14.4. way id in segment_id matches osm_way_id."
    },
    {
      "type": "Feature",
      "geometry": {
        "type": "LineString",
        "coordinates": [[-73.98801, 40.73502], [-73.98655, 40.73610]]
      },
      "properties": {
        "segment_id": "48800123:0:F",
        "edge_id": 1,
        "source_node": 11,
        "target_node": 12,
        "osm_way_id": 48800123,
        "highway_class": "secondary",
        "lanes_effective": 2,
        "length_m": 180.0,
        "maxspeed_kmh": 50.0,
        "freeflow_time_s": 12.96,
        "capacity_vph": 2520.0
      },
      "note": "two-way secondary, forward half of the F/R pair. defaults: lanes=2, maxspeed=50. capacity=2*1800*0.7=2520; freeflow=180/(50/3.6)=12.96."
    },
    {
      "type": "Feature",
      "geometry": {
        "type": "LineString",
        "coordinates": [[-73.98655, 40.73610], [-73.98801, 40.73502]]
      },
      "properties": {
        "segment_id": "48800123:0:R",
        "edge_id": 2,
        "source_node": 12,
        "target_node": 11,
        "osm_way_id": 48800123,
        "highway_class": "secondary",
        "lanes_effective": 2,
        "length_m": 180.0,
        "maxspeed_kmh": 50.0,
        "freeflow_time_s": 12.96,
        "capacity_vph": 2520.0
      },
      "note": "two-way secondary, reverse half (same way+seq as the F row, dir=R, source/target swapped, geometry reversed). same derived values."
    },
    {
      "type": "Feature",
      "geometry": {
        "type": "LineString",
        "coordinates": [[-73.97120, 40.74010], [-73.96650, 40.74180]]
      },
      "properties": {
        "segment_id": "905512:0:F",
        "edge_id": 3,
        "source_node": 20,
        "target_node": 21,
        "osm_way_id": 905512,
        "highway_class": "motorway",
        "lanes_effective": 3,
        "length_m": 500.0,
        "maxspeed_kmh": 100.0,
        "freeflow_time_s": 18.0,
        "capacity_vph": 5400.0
      },
      "note": "multi-segment motorway, sub-segment seq=0. OSM-tagged lanes=3, maxspeed=100. capacity=3*1800*1.0=5400; freeflow=500/(100/3.6)=18.0."
    },
    {
      "type": "Feature",
      "geometry": {
        "type": "LineString",
        "coordinates": [[-73.96650, 40.74180], [-73.96350, 40.74295]]
      },
      "properties": {
        "segment_id": "905512:1:F",
        "edge_id": 4,
        "source_node": 21,
        "target_node": 22,
        "osm_way_id": 905512,
        "highway_class": "motorway",
        "lanes_effective": 3,
        "length_m": 320.0,
        "maxspeed_kmh": 100.0,
        "freeflow_time_s": 11.52,
        "capacity_vph": 5400.0
      },
      "note": "same motorway way 905512, next sub-segment seq=1 after the pgRouting split. same lanes/maxspeed/capacity; shorter length 320 -> freeflow=320/(100/3.6)=11.52."
    },
    {
      "type": "Feature",
      "geometry": {
        "type": "LineString",
        "coordinates": [[-73.95001, 40.75002], [-73.94920, 40.75050]]
      },
      "properties": {
        "segment_id": "9876543:0:F",
        "edge_id": 5,
        "source_node": 30,
        "target_node": 31,
        "osm_way_id": 9876543,
        "highway_class": "residential",
        "lanes_effective": 1,
        "length_m": 90.0,
        "maxspeed_kmh": 30.0,
        "freeflow_time_s": 10.8,
        "capacity_vph": 900.0
      },
      "note": "one-way residential, all defaults: lanes=1, maxspeed=30. capacity=1*1800*0.5=900; freeflow=90/(30/3.6)=10.8. lowest-class non-service example."
    },
    {
      "type": "Feature",
      "geometry": {
        "type": "LineString",
        "coordinates": [[-73.93882, 40.75562], [-73.93714, 40.75646], [-73.93528, 40.75748]]
      },
      "properties": {
        "segment_id": "33112200:0:F",
        "edge_id": 6,
        "source_node": 40,
        "target_node": 41,
        "osm_way_id": 33112200,
        "highway_class": "trunk",
        "lanes_effective": 2,
        "length_m": 400.0,
        "maxspeed_kmh": 80.0,
        "freeflow_time_s": 18.0,
        "capacity_vph": 3240.0
      },
      "note": "trunk, defaults: lanes=2, maxspeed=80. exercises class_factor 0.9: capacity=2*1800*0.9=3240; freeflow=400/(80/3.6)=18.0. THREE-vertex LineString: the middle coordinate is a geometry shape point, NOT a graph node (only first/last map to source_node/target_node)."
    },
    {
      "type": "Feature",
      "geometry": {
        "type": "LineString",
        "coordinates": [[-73.93410, 40.75810], [-73.93350, 40.75835]]
      },
      "properties": {
        "segment_id": "71200:0:F",
        "edge_id": 7,
        "source_node": 50,
        "target_node": 51,
        "osm_way_id": 71200,
        "highway_class": "service",
        "lanes_effective": 1,
        "length_m": 60.0,
        "maxspeed_kmh": 20.0,
        "freeflow_time_s": 10.8,
        "capacity_vph": 720.0
      },
      "note": "service road, all defaults: lanes=1, maxspeed=20. exercises lowest class_factor 0.4: capacity=1*1800*0.4=720; freeflow=60/(20/3.6)=10.8."
    },
    {
      "type": "Feature",
      "geometry": {
        "type": "LineString",
        "coordinates": [[-73.93350, 40.75835], [-73.93050, 40.75980]]
      },
      "properties": {
        "segment_id": "60500777:0:F",
        "edge_id": 8,
        "source_node": 60,
        "target_node": 61,
        "osm_way_id": 60500777,
        "highway_class": "primary",
        "lanes_effective": 4,
        "length_m": 300.0,
        "maxspeed_kmh": 80.0,
        "freeflow_time_s": 13.5,
        "capacity_vph": 5760.0
      },
      "note": "primary with OSM-TAGGED lanes=4 and maxspeed=80, BOTH differing from the primary defaults (lanes=2, maxspeed=60) — catches a defaulting-vs-tagged exporter bug. capacity=4*1800*0.8=5760; freeflow=300/(80/3.6)=13.5."
    },
    {
      "type": "Feature",
      "geometry": {
        "type": "LineString",
        "coordinates": [[-73.93050, 40.75980], [-73.92960, 40.76030]]
      },
      "properties": {
        "segment_id": "5051000:0:F",
        "edge_id": 9,
        "source_node": 70,
        "target_node": 71,
        "osm_way_id": 5051000,
        "highway_class": "tertiary",
        "lanes_effective": 1,
        "length_m": 150.0,
        "maxspeed_kmh": 40.0,
        "freeflow_time_s": 13.5,
        "capacity_vph": 1080.0
      },
      "note": "tertiary, all defaults: lanes=1, maxspeed=40. exercises the previously-untested class_factor 0.6: capacity=1*1800*0.6=1080; freeflow=150/(40/3.6)=13.5. completes coverage of all 7 highway classes."
    },
    {
      "type": "Feature",
      "geometry": {
        "type": "LineString",
        "coordinates": [[-73.92908, 40.76054], [-73.92752, 40.76126]]
      },
      "properties": {
        "segment_id": "8123456:0:F",
        "edge_id": 10,
        "source_node": 80,
        "target_node": 81,
        "osm_way_id": 8123456,
        "highway_class": "secondary",
        "lanes_effective": 3,
        "length_m": 200.0,
        "maxspeed_kmh": 50.0,
        "freeflow_time_s": 14.4,
        "capacity_vph": 3780.0
      },
      "note": "two-way secondary tagged with a BARE OSM lanes=6 (both-directions total) and no lanes:forward/backward. The split rule applies: lanes_effective = floor(6/2) = 3 per direction (NOT 6 applied whole, NOT the secondary default 2). capacity=3*1800*0.7=3780; freeflow=200/(50/3.6)=14.4. forward half of the F/R pair."
    },
    {
      "type": "Feature",
      "geometry": {
        "type": "LineString",
        "coordinates": [[-73.92752, 40.76126], [-73.92908, 40.76054]]
      },
      "properties": {
        "segment_id": "8123456:0:R",
        "edge_id": 11,
        "source_node": 81,
        "target_node": 80,
        "osm_way_id": 8123456,
        "highway_class": "secondary",
        "lanes_effective": 3,
        "length_m": 200.0,
        "maxspeed_kmh": 50.0,
        "freeflow_time_s": 14.4,
        "capacity_vph": 3780.0
      },
      "note": "reverse half of the bare-lanes=6 two-way pair (same way+seq, dir=R, source/target swapped, geometry reversed). same split-derived lanes_effective=3 and derived values."
    }
  ]
}
